CCSDS_OMM_VERS = 2.0
CREATION_DATE  = 
ORIGINATOR     = 

OBJECT_NAME    = CYGNUS NG-23
OBJECT_ID      = 2025-208A
CENTER_NAME    = EARTH
REF_FRAME      = TEME
TIME_SYSTEM    = UTC
MEAN_ELEMENT_THEORY = SGP/SGP4

EPOCH          = 2025-12-27T04:18:31.505184
MEAN_MOTION    = 15.49864323
ECCENTRICITY   = .00032283
INCLINATION    = 51.6319
RA_OF_ASC_NODE = 70.9638
ARG_OF_PERICENTER = 308.9173
MEAN_ANOMALY   = 51.1527

EPHEMERIS_TYPE = 0
CLASSIFICATION_TYPE = U
NORAD_CAT_ID   = 65616
ELEMENT_SET_NO = 999
REV_AT_EPOCH   = 22
BSTAR          = .2516974E-3
MEAN_MOTION_DOT = .13867E-3
MEAN_MOTION_DDOT = 0

CCSDS_OMM_VERS = 2.0
CREATION_DATE  = 
ORIGINATOR     = 

OBJECT_NAME    = DRAGONFLY
OBJECT_ID      = 1998-067XH
CENTER_NAME    = EARTH
REF_FRAME      = TEME
TIME_SYSTEM    = UTC
MEAN_ELEMENT_THEORY = SGP/SGP4

EPOCH          = 2025-12-27T05:03:10.580832
MEAN_MOTION    = 15.77161756
ECCENTRICITY   = .00083257
INCLINATION    = 51.6248
RA_OF_ASC_NODE = 61.3905
ARG_OF_PERICENTER = 2.5372
MEAN_ANOMALY   = 357.5669

EPHEMERIS_TYPE = 0
CLASSIFICATION_TYPE = U
NORAD_CAT_ID   = 65729
ELEMENT_SET_NO = 999
REV_AT_EPOCH   = 1544
BSTAR          = .13635881E-2
MEAN_MOTION_DOT = .233999E-2
MEAN_MOTION_DDOT = 0

CCSDS_OMM_VERS = 2.0
CREATION_DATE  = 
ORIGINATOR     = 

OBJECT_NAME    = 1998-067XK
OBJECT_ID      = 1998-067XK
CENTER_NAME    = EARTH
REF_FRAME      = TEME
TIME_SYSTEM    = UTC
MEAN_ELEMENT_THEORY = SGP/SGP4

EPOCH          = 2025-12-27T05:01:56.665632
MEAN_MOTION    = 15.68597171
ECCENTRICITY   = .00051245
INCLINATION    = 51.6280
RA_OF_ASC_NODE = 63.6686
ARG_OF_PERICENTER = 335.1476
MEAN_ANOMALY   = 24.9273

EPHEMERIS_TYPE = 0
CLASSIFICATION_TYPE = U
NORAD_CAT_ID   = 65731
ELEMENT_SET_NO = 999
REV_AT_EPOCH   = 1541
BSTAR          = .95352598E-3
MEAN_MOTION_DOT = .111483E-2
MEAN_MOTION_DDOT = 0

CCSDS_OMM_VERS = 2.0
CREATION_DATE  = 
ORIGINATOR     = 

OBJECT_NAME    = RSP-03
OBJECT_ID      = 1998-067XL
CENTER_NAME    = EARTH
REF_FRAME      = TEME
TIME_SYSTEM    = UTC
MEAN_ELEMENT_THEORY = SGP/SGP4

EPOCH          = 2025-12-27T04:24:34.201152
MEAN_MOTION    = 15.72475718
ECCENTRICITY   = .0006157
INCLINATION    = 51.6260
RA_OF_ASC_NODE = 62.7293
ARG_OF_PERICENTER = 342.7468
MEAN_ANOMALY   = 17.3320

EPHEMERIS_TYPE = 0
CLASSIFICATION_TYPE = U
NORAD_CAT_ID   = 65732
ELEMENT_SET_NO = 999
REV_AT_EPOCH   = 1543
BSTAR          = .12339833E-2
MEAN_MOTION_DOT = .171198E-2
MEAN_MOTION_DDOT = 0

CCSDS_OMM_VERS = 2.0
CREATION_DATE  = 
ORIGINATOR     = 

OBJECT_NAME    = GHS-01
OBJECT_ID      = 1998-067XM
CENTER_NAME    = EARTH
REF_FRAME      = TEME
TIME_SYSTEM    = UTC
MEAN_ELEMENT_THEORY = SGP/SGP4

EPOCH          = 2025-12-26T21:01:30.345024
MEAN_MOTION    = 15.81574264
ECCENTRICITY   = .0009494
INCLINATION    = 51.6277
RA_OF_ASC_NODE = 62.1658
ARG_OF_PERICENTER = 4.8401
MEAN_ANOMALY   = 355.2691

EPHEMERIS_TYPE = 0
CLASSIFICATION_TYPE = U
NORAD_CAT_ID   = 65733
ELEMENT_SET_NO = 999
REV_AT_EPOCH   = 1541
BSTAR          = .15055E-2
MEAN_MOTION_DOT = .319127E-2
MEAN_MOTION_DDOT = 0

CCSDS_OMM_VERS = 2.0
CREATION_DATE  = 
ORIGINATOR     = 

OBJECT_NAME    = YOTSUBA-KULOVER
OBJECT_ID      = 1998-067XN
CENTER_NAME    = EARTH
REF_FRAME      = TEME
TIME_SYSTEM    = UTC
MEAN_ELEMENT_THEORY = SGP/SGP4

EPOCH          = 2025-12-27T06:00:30.216672
MEAN_MOTION    = 15.61434985
ECCENTRICITY   = .00027547
INCLINATION    = 51.6290
RA_OF_ASC_NODE = 66.9415
ARG_OF_PERICENTER = 9.1990
MEAN_ANOMALY   = 350.9054

EPHEMERIS_TYPE = 0
CLASSIFICATION_TYPE = U
NORAD_CAT_ID   = 65941
ELEMENT_SET_NO = 999
REV_AT_EPOCH   = 1212
BSTAR          = .83629815E-3
MEAN_MOTION_DOT = .72986E-3
MEAN_MOTION_DDOT = 0

CCSDS_OMM_VERS = 2.0
CREATION_DATE  = 
ORIGINATOR     = 

OBJECT_NAME    = BOTAN
OBJECT_ID      = 1998-067XP
CENTER_NAME    = EARTH
REF_FRAME      = TEME
TIME_SYSTEM    = UTC
MEAN_ELEMENT_THEORY = SGP/SGP4

EPOCH          = 2025-12-27T05:15:28.443744
MEAN_MOTION    = 15.66006349
ECCENTRICITY   = .00036864
INCLINATION    = 51.6275
RA_OF_ASC_NODE = 65.9806
ARG_OF_PERICENTER = 351.9823
MEAN_ANOMALY   = 8.1114

EPHEMERIS_TYPE = 0
CLASSIFICATION_TYPE = U
NORAD_CAT_ID   = 65942
ELEMENT_SET_NO = 999
REV_AT_EPOCH   = 1213
BSTAR          = .11595855E-2
MEAN_MOTION_DOT = .122237E-2
MEAN_MOTION_DDOT = 0

CCSDS_OMM_VERS = 2.0
CREATION_DATE  = 
ORIGINATOR     = 

OBJECT_NAME    = E-KAGAKU-1
OBJECT_ID      = 1998-067XQ
CENTER_NAME    = EARTH
REF_FRAME      = TEME
TIME_SYSTEM    = UTC
MEAN_ELEMENT_THEORY = SGP/SGP4

EPOCH          = 2025-12-26T11:34:38.215200
MEAN_MOTION    = 15.61326456
ECCENTRICITY   = .00014737
INCLINATION    = 51.6304
RA_OF_ASC_NODE = 70.8185
ARG_OF_PERICENTER = 333.5123
MEAN_ANOMALY   = 26.5795

EPHEMERIS_TYPE = 0
CLASSIFICATION_TYPE = U
NORAD_CAT_ID   = 65943
ELEMENT_SET_NO = 999
REV_AT_EPOCH   = 1200
BSTAR          = .7949653E-3
MEAN_MOTION_DOT = .69021E-3
MEAN_MOTION_DDOT = 0

CCSDS_OMM_VERS = 2.0
CREATION_DATE  = 
ORIGINATOR     = 

OBJECT_NAME    = HRC MONOBLOCK CAMERA
OBJECT_ID      = 1998-067XR
CENTER_NAME    = EARTH
REF_FRAME      = TEME
TIME_SYSTEM    = UTC
MEAN_ELEMENT_THEORY = SGP/SGP4

EPOCH          = 2025-12-27T07:22:24.497472
MEAN_MOTION    = 15.55156889
ECCENTRICITY   = .00018561
INCLINATION    = 51.6304
RA_OF_ASC_NODE = 68.8177
ARG_OF_PERICENTER = 258.0003
MEAN_ANOMALY   = 102.0780

EPHEMERIS_TYPE = 0
CLASSIFICATION_TYPE = U
NORAD_CAT_ID   = 66052
ELEMENT_SET_NO = 999
REV_AT_EPOCH   = 1110
BSTAR          = .51894374E-3
MEAN_MOTION_DOT = .35345E-3
MEAN_MOTION_DDOT = 0

CCSDS_OMM_VERS = 2.0
CREATION_DATE  = 
ORIGINATOR     = 

OBJECT_NAME    = HTV-X1
OBJECT_ID      = 2025-241A
CENTER_NAME    = EARTH
REF_FRAME      = TEME
TIME_SYSTEM    = UTC
MEAN_ELEMENT_THEORY = SGP/SGP4

EPOCH          = 2025-12-27T04:18:31.505184
MEAN_MOTION    = 15.49864323
ECCENTRICITY   = .00032283
INCLINATION    = 51.6319
RA_OF_ASC_NODE = 70.9638
ARG_OF_PERICENTER = 308.9173
MEAN_ANOMALY   = 51.1527

EPHEMERIS_TYPE = 0
CLASSIFICATION_TYPE = U
NORAD_CAT_ID   = 66174
ELEMENT_SET_NO = 999
REV_AT_EPOCH   = 51
BSTAR          = .2516974E-3
MEAN_MOTION_DOT = .13867E-3
MEAN_MOTION_DDOT = 0

CCSDS_OMM_VERS = 2.0
CREATION_DATE  = 
ORIGINATOR     = 

OBJECT_NAME    = SZ-21 MODULE
OBJECT_ID      = 2025-246C
CENTER_NAME    = EARTH
REF_FRAME      = TEME
TIME_SYSTEM    = UTC
MEAN_ELEMENT_THEORY = SGP/SGP4

EPOCH          = 2025-12-27T04:08:50.820288
MEAN_MOTION    = 15.63263847
ECCENTRICITY   = .0004159
INCLINATION    = 41.4764
RA_OF_ASC_NODE = 287.9534
ARG_OF_PERICENTER = 338.5057
MEAN_ANOMALY   = 21.5607

EPHEMERIS_TYPE = 0
CLASSIFICATION_TYPE = U
NORAD_CAT_ID   = 66515
ELEMENT_SET_NO = 999
REV_AT_EPOCH   = 670
BSTAR          = .34323553E-3
MEAN_MOTION_DOT = .32194E-3
MEAN_MOTION_DDOT = 0

CCSDS_OMM_VERS = 2.0
CREATION_DATE  = 
ORIGINATOR     = 

OBJECT_NAME    = SHENZHOU-22
OBJECT_ID      = 2025-272A
CENTER_NAME    = EARTH
REF_FRAME      = TEME
TIME_SYSTEM    = UTC
MEAN_ELEMENT_THEORY = SGP/SGP4

EPOCH          = 2025-12-27T06:02:45.823200
MEAN_MOTION    = 15.59750285
ECCENTRICITY   = .0008745
INCLINATION    = 41.4675
RA_OF_ASC_NODE = 288.5662
ARG_OF_PERICENTER = 157.7703
MEAN_ANOMALY   = 202.3516

EPHEMERIS_TYPE = 0
CLASSIFICATION_TYPE = U
NORAD_CAT_ID   = 66645
ELEMENT_SET_NO = 999
REV_AT_EPOCH   = 26598
BSTAR          = .24488937E-3
MEAN_MOTION_DOT = .1992E-3
MEAN_MOTION_DDOT = 0

