CYGNUS NG-23            
1 65616U 25208A   25361.17953131  .00013867  00000+0  25170-3 0  9990
2 65616  51.6319  70.9638 0003228 308.9173  51.1527 15.49864323   220
DRAGONFLY               
1 65729U 98067XH  25361.21053913  .00233999  00000+0  13636-2 0  9995
2 65729  51.6248  61.3905 0008325   2.5372 357.5669 15.77161756 15449
1998-067XK              
1 65731U 98067XK  25361.20968363  .00111483  00000+0  95353-3 0  9991
2 65731  51.6280  63.6686 0005124 335.1476  24.9273 15.68597171 15410
RSP-03                  
1 65732U 98067XL  25361.18372918  .00171198  00000+0  12340-2 0  9997
2 65732  51.6260  62.7293 0006157 342.7468  17.3320 15.72475718 15433
GHS-01                  
1 65733U 98067XM  25360.87604566  .00319127  00000+0  15055-2 0  9992
2 65733  51.6277  62.1658 0009494   4.8401 355.2691 15.81574264 15410
YOTSUBA-KULOVER         
1 65941U 98067XN  25361.25034973  .00072986  00000+0  83630-3 0  9999
2 65941  51.6290  66.9415 0002754   9.1990 350.9054 15.61434985 12125
BOTAN                   
1 65942U 98067XP  25361.21907921  .00122237  00000+0  11596-2 0  9994
2 65942  51.6275  65.9806 0003686 351.9823   8.1114 15.66006349 12134
E-KAGAKU-1              
1 65943U 98067XQ  25360.48238675  .00069021  00000+0  79497-3 0  9992
2 65943  51.6304  70.8185 0001473 333.5123  26.5795 15.61326456 12008
HRC MONOBLOCK CAMERA    
1 66052U 98067XR  25361.30722798  .00035345  00000+0  51894-3 0  9993
2 66052  51.6304  68.8177 0001856 258.0003 102.0780 15.55156889 11109
HTV-X1                  
1 66174U 25241A   25361.17953131  .00013867  00000+0  25170-3 0  9997
2 66174  51.6319  70.9638 0003228 308.9173  51.1527 15.49864323   512
SZ-21 MODULE            
1 66515U 25246C   25361.17281042  .00032194  00000+0  34324-3 0  9991
2 66515  41.4764 287.9534 0004159 338.5057  21.5607 15.63263847  6708
SHENZHOU-22             
1 66645U 25272A   25361.25191925  .00019920  00000+0  24489-3 0  9996
2 66645  41.4675 288.5662 0008745 157.7703 202.3516 15.59750285265983
